{
    "links": {
        "self": "http://www.neowsapp.com/rest/v1/neo/3743612?api_key=iIulBulltgU6a56xZRHN4H3l9WmuAYTsLGpBGhQ2"
    },
    "id": "3743612",
    "neo_reference_id": "3743612",
    "name": "(2016 CG194)",
    "designation": "2016 CG194",
    "nasa_jpl_url": "http://ssd.jpl.nasa.gov/sbdb.cgi?sstr=3743612",
    "absolute_magnitude_h": 24.1,
    "estimated_diameter": {
        "kilometers": {
            "estimated_diameter_min": 0.040230458,
            "estimated_diameter_max": 0.0899580388
        },
        "meters": {
            "estimated_diameter_min": 40.2304579834,
            "estimated_diameter_max": 89.9580388169
        },
        "miles": {
            "estimated_diameter_min": 0.0249980399,
            "estimated_diameter_max": 0.0558973165
        },
        "feet": {
            "estimated_diameter_min": 131.9896957704,
            "estimated_diameter_max": 295.1379320721
        }
    },
    "is_potentially_hazardous_asteroid": false,
    "close_approach_data": [
        {
            "close_approach_date": "2016-01-09",
            "close_approach_date_full": "2016-Jan-09 01:50",
            "epoch_date_close_approach": 1452304200000,
            "relative_velocity": {
                "kilometers_per_second": "2.7171397783",
                "kilometers_per_hour": "9781.7032018715",
                "miles_per_hour": "6077.969970074"
            },
            "miss_distance": {
                "astronomical": "0.1452085535",
                "lunar": "56.4861273115",
                "kilometers": "21722890.309381045",
                "miles": "13497978.128686621"
            },
            "orbiting_body": "Earth"
        }
    ],
    "orbital_data": {
        "orbit_id": "6",
        "orbit_determination_date": "2017-04-06 08:28:21",
        "first_observation_date": "2016-02-10",
        "last_observation_date": "2016-03-02",
        "data_arc_in_days": 21,
        "observations_used": 24,
        "orbit_uncertainty": "9",
        "minimum_orbit_intersection": ".140922",
        "jupiter_tisserand_invariant": "4.098",
        "epoch_osculation": "2457430.5",
        "eccentricity": ".3546026256445798",
        "semi_major_axis": "1.720174721030385",
        "inclination": "3.412545335696159",
        "ascending_node_longitude": "23.27004151578091",
        "orbital_period": "824.0570298781172",
        "perihelion_distance": "1.110196248385578",
        "perihelion_argument": "84.61383320252978",
        "aphelion_distance": "2.330153193675192",
        "perihelion_time": "2457394.593937581808",
        "mean_anomaly": "15.68602900270261",
        "mean_motion": ".4368629681531218",
        "equinox": "J2000",
        "orbit_class": {
            "orbit_class_type": "AMO",
            "orbit_class_description": "Near-Earth asteroid orbits similar to that of 1221 Amor",
            "orbit_class_range": "1.017 AU < q (perihelion) < 1.3 AU"
        }
    },
    "is_sentry_object": false
}